,station_id,charging_status,latitude,longtitude,address,zip_code,outlet_counts
0,167633,True,47.041783720021954,-122.8259167746391,676 Woodland Square Loop SE,98503,4
2,167569,True,47.672506775532526,-117.083536188263,24021 E Mission Ave,99019,1
3,162252,True,47.675709806846754,-117.42627111207219,1930 N Monroe St,99205,1
4,161937,True,47.920163,-120.186618,4848 Green Avenue,98831,1
5,161735,True,47.767687,-122.191482,19128 112th Avenue Ne,98011,1
6,161575,True,47.97323242923392,-122.20074582131394,3331 broadway,98201,1
7,160958,True,47.954719,-122.208416,4730 Colby Ave,98203,1
8,160957,True,47.946567294707,-124.39440425424,390 Founders Way,98331,1
9,160955,True,47.905376,-122.293871,10200 Mukilteo Speedway,98275,1
10,160952,True,47.830463,-122.27525,3000 184th St SW,98037,1
11,160951,True,47.828955,-122.271313,3000 184th St SW,98037,1
12,160950,True,47.821996,-122.283946,3711 196th St SW,98036,1
13,160949,True,47.8107,-122.2953427,20816 44th Ave W,98036,1
14,160948,True,47.809773,-122.294603,20800 44th Ave W,98036,1
15,160945,True,47.7133,-122.209,9926 NE 126th St,98034,1
16,160944,True,47.711826,-122.194719,11010 NE 124th Lane,98034,1
17,160942,True,47.682855,-122.289873,7340 35th Ave NE,98115,1
18,160941,True,47.6813812255859,-122.258750915527,Sportsfield Dr NE,98115,2
19,160940,True,47.6807529,-122.4047949,7001 Seaview Avenue Northwest,98117,1
20,160939,True,47.6269855,-122.3489912,805 4th Ave N,98109,1
21,160938,True,47.622996,-122.123247,16240 NE 13th Place,98008,1
22,160937,True,47.621913,-122.122271,16242 NE 13th Place,98008,1
23,160936,True,47.6191033,-122.1271025,16000 NE 10th St,98008,1
24,160935,True,47.617203,-122.340712,2250 7th Ave,98121,1
25,160934,True,47.616737,-122.146188,14526 NE 7th Place,98007,1
26,160933,True,47.613651,-122.3183251,1427 11th Avenue,98122,1
27,160931,True,47.563916,-122.287666,4412 Rainier Ave,98118,1
28,160929,True,47.515629999,-122.34467,9800 8th Avenue SW,98106,1
29,160926,True,47.483486,-122.194315,1850 Maple Valley Highway,98057,1
30,160925,True,47.474597,-122.285655,3716 S 144th St,98168,1
31,160924,True,47.470555,-122.346554,14656 Ambaum Blvd SW,98166,1
32,160923,True,47.448013,-122.45897,9740 SW Bank Rd,98070,1
33,160922,True,47.44118,-122.199398,17901 105th Place SE,98055,1
34,160920,True,47.3986558,-122.2542232,22726 64th Ave S,98032,1
35,160919,True,47.383298,-122.236183,"311 4th. Ave. N. Kent, Washington 98032",98032,3
36,160916,True,47.358497,-122.112065,27130 172nd Ave SE,98042,1
37,160915,True,47.357329,-122.301971,27314 24th Ave S.,98003,1
38,160914,True,47.35506,-122.1668,27360 129th Place SE,98030,1
39,160912,True,47.343242,-122.302305,28817 Military Rd,98003,1
40,160911,True,47.3301442,-122.2225295,2605 Auburn Way N,98002,1
41,160909,True,47.318046,-122.584772,6575 Kimball Dr,98335,1
42,160908,True,47.228927,-122.497865,3510 S Mullen St,98409,1
43,160907,True,47.1811124,-122.5657394,Sequoia St,98498,1
44,160906,True,47.1772569,-122.5643075,9601 Steilacoom Blvd SW,98498,1
45,160905,True,47.1285209655762,-119.281585693359,312 W Third Ave.,98837,2
46,160904,True,47.1269,-119.284584,312 W 3rd Ave,98837,3
47,160901,True,47.050554,-122.902413,700 Capitol Way N,98501,1
48,160900,True,47.03505,-122.901843,103 Sid Snyder Ave SW,98501,1
49,160854,True,46.3343983,-119.269803,359 University Drive,99354,1
50,160849,True,46.2707488,-118.1532507,128 Coppei Avenue,99361,1
51,160847,True,46.266739,-119.303543,2700 Duportail St,99352,3
52,160844,True,46.219978,-119.785172,40 Merlot Dr,99350,3
53,160843,True,46.2193794250488,-119.790260314941,40 Merlot Drive,99350,2
54,160833,True,46.0459904,-118.3568298,1531 Kelly Place,99362,1
55,160832,True,46.0427838,-118.3869759,625 S College Ave,99324,1
56,157706,True,46.143261,-122.898533,207 Three Rivers Drive,98626,1
57,155652,True,47.942921,-124.385236,100 Fern Hill Road,98331,1
58,155416,True,46.952938,-122.935249,2430 93RD Avenue Southwest,98512,1
59,149465,True,46.06255764414121,-118.34215462427937,401 W. Poplar St,99362,1
60,148975,True,47.590147,-117.561816,10506 West Aero Road,99224,1
61,148919,True,47.103808,-119.310556,2709 West Broadway Avenue,98837,1
62,146422,True,47.468033,-121.716442,46600 Se North Bend Way,98045,1
63,146013,True,48.8529235,-122.5895254,5828 2nd Ave,98248,1
64,146001,True,48.7470747,-122.4807487,1100 Railroad Avenue,98225,1
65,146000,True,48.74393,-122.461854,1030 Lakeway Dr,98229,2
66,145999,True,48.7380794,-122.4693919,218 N Samish Way,98225,1
67,145998,True,48.727084,-122.480753,2700 Bill McDonald Pkwy,98225,1
68,145992,True,48.673466,-121.261467,500 Newhalem St,98283,1
69,145982,True,48.599217,-122.945746,155 Orcas Hill Rd,98280,2
70,145976,True,48.536489,-123.021351,530 Guard St,98250,1
71,145948,True,48.443101,-122.316545,1901 Hoag Rd,98273,1
72,145947,True,48.44174,-122.344757,2301 Freeway Dr.,98273,2
73,145945,True,48.436423,-122.3088327,2405 E. College Way,98273,1
74,145923,True,48.343203,-122.675002,3730 N Charles Porter Ave,98278,1
75,145920,True,48.309216,-122.641266,33185 WA-20,98277,1
76,145906,True,48.175138,-122.141401,19700 67th Ave NE,98223,1
77,145904,True,48.1427337,-122.1837727,16120 Smokey Point Blvd,98271,1
78,145903,True,48.139506,-122.184619,15714 Smokey Point Blvd,98271,1
79,145902,True,48.119672,-123.431005,128 E Railroad Ave,98362,3
80,145900,True,48.115251,-123.415521,939 Caroline Street,98362,1
81,145899,True,48.10697,-122.779991,301 10th Street,98368,1
82,145892,True,48.095461,-122.186896,10600 Quil Ceda Blvd.,98271,2
83,145891,True,48.093002,-122.189789,10600 Quil Ceda Blvd,98271,3
84,145890,True,48.0570862,-123.800045,416 Lake Crescent Road,98363,1
85,145889,True,48.0553,-122.6957,Chimacum Rd,98339,2
86,145883,True,48.0067833,-122.2027667,"2000 Tower St, Maintenance Bldg 105",98201,1
87,145881,True,48.000496,-122.205936,1717 13th St,98201,1
88,145880,True,48.0000028,-122.2146431,1028 13th Street,98201,1
89,145879,True,47.999006,-122.205272,1800 14th St.,98201,1
90,145878,True,47.998233,-122.100638,9601 Market Place,98258,3
91,145875,True,47.97208,-122.200225,3402 McDougall Ave.,98201,1
92,145874,True,47.96,-122.19,2000 W Marine View Dr,98201,2
93,145872,True,47.9487555,-122.3062009,609 Front Street,98275,1
94,145871,True,47.919531,-122.232309,8530 Evergreen Way,98204,1
95,145870,True,47.913486,-122.213314,1605 SE Everett Mall Way,98208,2
96,145867,True,47.893501,-122.256001,11400 Hwy. 99,98204,3
97,145866,True,47.8834444,-122.2374825,12711 4th Ave W,98204,1
98,145864,True,47.8789325,-122.2071316,13110 Bothell Everett Hwy,98208,1
99,145863,True,47.865164,-121.973176,19191 N Kelsey Street,98272,3
100,145861,True,47.848697,-122.246153,16423 Larch Way,98037,1
101,145860,True,47.84839,-122.27274,2902 164th Street SW,98037,1
102,145855,True,47.831991,-122.267332,18305 Alderwood Mall Pkwy,98037,3
103,145853,True,47.828644,-122.310875,5711 188th St SW,98037,1
104,145850,True,47.820568,-122.273567,3000 196th St SW,98036,2
105,145849,True,47.8142359,-122.3016909,20311 52nd Avenue West,98036,1
106,145848,True,47.8051107,-122.3813841,600 3rd Avenue South,98020,1
107,145847,True,47.8045651,-122.1205486,8310 Maltby Road,98072,1
108,145846,True,47.8040624,-122.3735496,100 6th Avenue,98020,1
109,145843,True,47.776781,-122.181535,3830 Monte Villa Parkway,98021,1
110,145842,True,47.771795,-122.1809892,19909 120th Ave NE,98011,1
111,145841,True,47.761858,-122.19188,18140 Campus Way NE,98011,1
112,145840,True,47.760178,-122.190581,18500 Campus Way NE,98011,1
113,145839,True,47.756603,-122.345231,17524 Aurora Ave N,98133,1
114,145838,True,47.7548511,-122.1556007,13780 NE 175th St,98072,1
115,145837,True,47.7538108825684,-122.346504211426,17001 Aurora Ave N,98133,2
116,145836,True,47.7524795532227,-117.410842895508,10503 N Division,99218,1
117,145835,True,47.7466244,-122.6369159,20148 10th Ave. NE,98370,1
118,145834,True,47.7463188,-121.089984,Stevens Pass Mountain Resort,98288,1
119,145833,True,47.743364,-122.347816,15711 Aurora Ave N,98133,1
120,145832,True,47.736632,-122.647204,19133 Jensen Way NE,98370,1
121,145831,True,47.723689,-122.292383,13000 Lake City Way NE,98125,2
122,145830,True,47.7199844,-122.3440925,12500 Aurora Avenue,98133,1
123,145829,True,47.717847,-122.294307,12311 32nd Ave NE,98125,1
124,145828,True,47.708482,-122.183522,12221 120th Ave NE,98034,2
125,145827,True,47.708457,-122.324887,401 NE Northgate Way,98125,3
126,145826,True,47.7047402,-122.2108592,11607 98th Ave NE,98034,1
127,145825,True,47.704069,-122.167006,11605 132nd Ave NE,98034,1
128,145824,True,47.703632,-122.3565066,211 N. 103rd ST,98133,1
129,145823,True,47.7034052,-122.1537852,11431 Willows Road,98052,1
130,145822,True,47.7033895,-122.3558363,10215 Greenwood Ave. North,98133,1
131,145821,True,47.7033,-122.32519,401 NE Northgate Way,98125,3
132,145820,True,47.70224,-122.624811,611 Dowell Rd,98345,1
133,145819,True,47.701879,-122.343086,10006 Aurora Ave N,98133,1
134,145818,True,47.6992271,-122.3346258,9600 College Way N,98103,2
135,145817,True,47.682585,-122.317187,7300 Roosevelt Way NE,98115,1
136,145814,True,47.67881,-122.17536,12405 NE 85th St,98033,1
137,145813,True,47.6780547,-122.3141185,1205 NE 66th ST,98115,1
138,145812,True,47.677868,-122.19936,321 Park Pl,98033,1
139,145811,True,47.6755563,-122.2073834,52 Kirkland Ave,98033,1
140,145810,True,47.675378,-117.206738,15015  E Indiana Ave,99216,1
141,145809,True,47.674374,-122.127167,16015 Cleveland St,98052,1
142,145808,True,47.674027,-122.103001,17770 NE 78th Pl,98053,1
143,145807,True,47.6726989746094,-117.100059509277,1620 N Signal Dr,99019,1
144,145806,True,47.670707,-122.103973,17667 NE 76TH ST,98052,1
145,145804,True,47.6689554,-122.3888077,2428 NW Market St,98107,1
146,145803,True,47.6680506,-117.4063003,302 E Boone Ave,99202,1
147,145802,True,47.6680297851562,-117.183792114258,"16418 E Indiana,",99216,1
148,145801,True,47.6674691,-117.1493042,19011 E Cataldo Ave,99016,2
149,145800,True,47.6665847,-122.0991426,18005 Northeast 68th Street,98052,1
150,145799,True,47.6654703,-122.3502919,750 N 50th St,98103,2
151,145798,True,47.663497,-122.30069,2520 NE University Village St,98105,1
152,145797,True,47.6631050109863,-117.400489807129,721 N Cincinnati,99201,2
153,145796,True,47.662343,-122.370015,907 NW Ballard Way,98107,1
154,145795,True,47.662197,-117.431889,500 N Cedar St,99201,3
155,145794,True,47.659948,-117.423395,777 W. Spokane Falls Blvd,99201,1
156,145792,True,47.658808,-122.688751,10315 Silverdale Way NW,98383,1
157,145791,True,47.658557,-122.312143,1414 NE 42nd Street,98105,1
158,145790,True,47.658,-122.712,1035 Trident Blvd,98315,1
159,145789,True,47.65753,-122.206519,3000 Carillon Point,98033,1
160,145787,True,47.656979,-122.692138,10315 Silverdale Way NW,98383,1
161,145786,True,47.65588110993,-122.38276327302,4005 20th Avenue West,98199,1
162,145784,True,47.655327,-122.205254,5000 Carillon Point,98033,1
163,145781,True,47.652505,-122.694367,3909 NW Randall Way,98383,2
164,145780,True,47.649189,-117.412879,101 W 8th Ave,99204,1
165,145778,True,47.6439379,-122.1965663,S Kirkland P&R,98033,1
166,145777,True,47.6357914,-122.5148321,1315 Wintergreen Lane NE,98110,1
167,145776,True,47.6356394,-122.7238278,"5455 NW Newberry Hill Rd., #201",98383,1
168,145775,True,47.633992,-122.339684,1700 Westlake Ave N,98109,1
169,145774,True,47.633041,-122.136031,2580 152nd Avenue NE,98052,1
170,145773,True,47.630585,-122.15664,2301 140th Ave NE,98005,1
171,145772,True,47.628786,-122.34272,1101 Dexter Ave N,98109,1
172,145771,True,47.628472,-122.205736,2088 Bellevue Square,98004,1
173,145770,True,47.628428,-122.143153,2041 148TH NE,98007,1
174,145769,True,47.6283848,-122.3418983,1000 Dexter Avenue North,98109,1
175,145768,True,47.6274037,-122.1578742,1805-1999 136th Pl NE,98005,1
176,145767,True,47.6266892,-122.341933,"810 Dexter Ave., North",98109,1
177,145766,True,47.626541,-122.155852,13817 NE 20th St,98005,2
178,145765,True,47.626531,-122.329993,"825 Eastlake Ave E, LA-104",98109,1
179,145764,True,47.6249212,-122.5193398,232-240 Winslow Way E,98110,1
180,145763,True,47.6246042,-122.3593182,200 West Mercer Street,98119,1
181,145762,True,47.62419,-122.5175091,343 Winslow Way E,98110,1
182,145761,True,47.62289,-122.185723,1231 116th Ave NE,98004,1
183,145760,True,47.622046,-122.321607,401 Broadway E,98102,1
184,145759,True,47.6207931,-122.1924689,11101 NE 12th St,98004,1
185,145758,True,47.620663,-122.329521,222 Yale Ave N,98109,3
186,145756,True,47.619989,-122.190555,1100 112th Ave NE,98004,1
187,145755,True,47.619775,-122.331111,221 Yale Ave N,98109,1
188,145754,True,47.619075,-122.359573,101 Elliott Avenue West,98121,1
189,145753,True,47.617712,-122.337994,2200 Westlake Ave,98121,1
190,145752,True,47.6166344,-122.3495259,225 Cedar Street,98121,1
191,145751,True,47.6154894,-122.3110069,1600 East Madison Street,98122,1
192,145750,True,47.614102,-122.034147,510 228th Ave NE,98074,1
193,145748,True,47.613457,-122.321919,1406 Harvard Ave,98122,2
194,145747,True,47.612834,-122.178704,330 120th Ave NE,98005,1
195,145746,True,47.611815,-122.178134,150 120th Ave NE,98005,1
196,145745,True,47.6116369,-122.2105964,9899 Lake Washington Blvd NE,98004,1
197,145744,True,47.611519,-122.182197,"11900 NE 1st Street, Building G",98007,1
198,145743,True,47.611502,-122.201257,110 Bellevue Way NE,98004,1
199,145741,True,47.6113722,-122.343703,2025 1st Avenue,98121,1
200,145740,True,47.609162,-122.326222,1012 Terry Ave,98101,1
201,145739,True,47.60636,-122.321639,515 Minor Ave,98104,1
202,145738,True,47.605477,-122.323427,908 Jefferson,98104,1
203,145737,True,47.604115,-122.332907,214 Columbia St,98104,1
204,145736,True,47.6039634,-122.3241159,325 9th Avenue,98104,1
205,145735,True,47.603663,-122.320148,207 Boren Ave,98109,1
206,145734,True,47.6034418,-122.3339101,719 Second Ave,98104,1
207,145733,True,47.602677,-122.327402,415 6th Ave S,98104,1
208,145731,True,47.59878,-122.330837,201 S Jackson St,98104,1
209,145730,True,47.5987016,-122.3351902,450 Alaskan Way,98104,1
210,145729,True,47.597953,-122.333068,530 Occidental Ave S,98104,1
211,145728,True,47.5976,-122.142,1424 148th Ave SE,98007,1
212,145727,True,47.5974244,-122.3347174,505 1st Avenue South,98104,1
213,145726,True,47.5953921,-122.3115066,807 Rainier Ave S,98144,1
214,145724,True,47.5892477,-122.3358112,1531 Utah Avenue South,98134,1
215,145723,True,47.5881215,-122.2372058,2430 76th Ave SE,98040,1
216,145722,True,47.590116757424965,-117.56555706261264,10810 W Westbow Rd,99224,1
219,145721,True,47.585655,-122.147284,3000 Landerholm Cir SE,98007,1
220,145720,True,47.58495,-122.15043,3036 Snoqualmie River Road,98005,2
221,145719,True,47.584831,-122.235771,2755 77th Ave SE,98040,2
222,145718,True,47.584564,-122.13685,15325 SE 30th Pl,98007,1
223,145717,True,47.583103,-122.033895,3016 Issaquah-Pine Lake Rd SE,98075,1
224,145716,True,47.580655,-122.143364,14762 SE Eastgate Way,98007,1
225,145715,True,47.5806355,-122.1564536,13810 Southeast Eastgate Way,98005,1
226,145714,True,47.579872,-122.135431,3245 158th Ave SE,98008,1
227,145713,True,47.575355,-122.634233,1600 Chester Ave,98337,1
228,145711,True,47.5713857,-122.1648077,13180 SE Newport Way,98006,1
229,145710,True,47.571235,-122.327878,409 South Spokane Street,98134,3
230,145708,True,47.56825,-122.66705,3929 Kitsap Way,98312,2
231,145707,True,47.567585,-122.640714,1546 6th St,98337,1
232,145706,True,47.563229,-122.646326,120 S Dewey St,98315,2
233,145702,True,47.557617362794,-122.33118116856,210 South Hudson Street,98134,1
234,145701,True,47.55,-122.64,1400 Farragut Ave,98314,2
235,145700,True,47.5450748,-122.0089108,1460 NE Hawthorne Street,98029,1
236,145697,True,47.542153,-121.836634,6501 Railroad Avenue SE,98065,1
237,145696,True,47.541874,-122.052032,755 NW Gillman Blvd.,98027,3
238,145695,True,47.5373611,-122.6389133,614 Divison Street,98366,1
239,145694,True,47.5368996,-122.3034973,7277 Perimeter Road King County Airport Acrd,98108,1
240,145693,True,47.5365604,-122.0205442,"580 8th Ave., NE",98029,1
241,145692,True,47.536237,-122.0220539,751 N.E. Blakely Drive,98027,1
242,145691,True,47.5349155,-122.0375524,485 Rainier Blvd N,98027,1
243,145690,True,47.5326,-121.87315,35018 SE Ridge Street,98065,1
244,145687,True,47.522914,-122.393658,9105 Fauntleroy Way SW,98136,1
245,145681,True,47.502354,-122.34112,11195 5th Ave SW,98146,1
246,145680,True,47.497292,-122.199295,1215 N Landing Way,98057,3
247,145679,True,47.491288,-121.793559,461 S. Fork Avenue,98045,2
248,145678,True,47.490084,-122.17574,3000 NE 4th St,98056,1
249,145676,True,47.481246,-122.20848,655 South 2nd St,98057,1
250,145675,True,47.477362,-122.215347,440 Rainier Ave South,98057,1
251,145674,True,47.474171,-122.224102,550 SW 7th St,98057,1
252,145673,True,47.465555,-123.850735,345 S Shore Rd,98575,1
253,145672,True,47.4654,-122.220917,1601 East Valley Rd,98057,1
254,145671,True,47.4611115,-122.242316,Longacres Way,98188,1
255,145669,True,47.459988,-122.259089,500 Southcenter Mall,98188,1
256,145668,True,47.455854,-122.232867,1200 SW 27th St,98057,1
257,145667,True,47.455711,-122.25738,301 Strander Blvd.,98188,2
258,145666,True,47.451709,-122.295497,16826 International Blvd,98188,1
259,145665,True,47.451373,-122.826865,23730 NE HWY  3,98528,1
260,145664,True,47.450258,-122.299448,2623 S 170th St,98188,2
261,145663,True,47.44897,-122.25331,700 Andover Park W,98188,1
262,145662,True,47.4463797,-122.2196648,3715 E Valley Rd,98057,1
263,145661,True,47.44299,-122.227169,601 SW 41st St,98057,1
264,145654,True,47.3951507,-122.2953153,23003 Pacific Highway South,98198,1
265,145653,True,47.389484,-122.301609,2400 S 240th St,98198,1
266,145652,True,47.3839447,-122.2336529,301-383 1st Ave N,98032,1
267,145651,True,47.380135,-122.196106,10828 SE 248th St,98030,1
268,145648,True,47.362455,-122.017988,26520 Maple Valley Black Diamond Road SE,98038,1
269,145647,True,47.360982,-122.110209,17432 SE 270th PL,98042,3
270,145646,True,47.356087,-122.101311,18025 SE 272nd St,98042,1
271,145642,True,47.3207,-122.219776,1416 HARVEY RD,98002,2
272,145640,True,47.315392,-122.307147,2016 S 320th St,98003,1
273,145639,True,47.307249,-122.229499,2 East Main Street,98001,1
274,145638,True,47.301047,-122.214835,1103 Ninth Avenue SE,98002,1
275,145637,True,47.298158744057,-122.50341835087,5005 Main Street,98407,1
276,145636,True,47.2968474,-122.3814568,34008 Hoyt Rd. SW,98023,2
277,145635,True,47.2944668,-122.2458311,1102 15th Street Southwest,98001,1
278,145634,True,47.293216,-122.212814,1701 Auburn Way S,98002,2
279,145633,True,47.2909636,-122.1953885,2402 Auburn Way,98002,1
280,145632,True,47.281263,-122.516582,3540 N Pearl St,98407,1
281,145631,True,47.25914,-122.514596,1015 N Pearl St,98406,1
282,145630,True,47.2516554,-122.4376564,1301 Pacific Ave,98402,1
283,145629,True,47.249586,-122.452844,1314 S L St,98405,1
284,145628,True,47.2464713,-122.4396442,1717 Market Street,98402,1
285,145627,True,47.245269,-122.206909,1502 Lake Tapps Parkway SE,98092,2
286,145626,True,47.2442292,-122.4388691,1901 Jefferson Ave,98402,1
287,145625,True,47.24293,-122.39677,2302 Pacific Hwy E,98424,1
288,145624,True,47.24198,-122.348098,6006 Pacific Highway East,98424,2
289,145623,True,47.239472,-122.480252,1965 S Union Ave.,98405,3
290,145622,True,47.239188,-122.374558,4011 20th St E,98424,2
291,145621,True,47.2346725463867,-117.370063781738,E 6th St,99170,3
292,145619,True,47.21543,-122.47068,4502 S Steele St,98409,3
293,145617,True,47.2066383361816,-122.29222869873,111 Valley Ave NE,98372,2
294,145616,True,47.204923,-122.288245,516 Valley Avenue NE,98372,1
295,145615,True,47.203981,-122.237313,1099 Wood Ave,98390,1
296,145613,True,47.1906089782715,-122.484420776367,7230 S Tacoma Way,98409,2
297,145612,True,47.184778,-122.29331,110 9th Ave SW,98371,1
298,145611,True,47.182515,-122.291956,10th Ave SE,98371,1
299,145609,True,47.1727264,-122.5984377,207 Wilkes Street,98388,1
300,145608,True,47.1531991,-122.5040231,11509 Bridgeport Way SW,98499,1
301,145607,True,47.1450982,-122.4387415,508 122nd St S,98447,1
302,145606,True,47.119482,-118.362709,1611 Smittys Blvd.,99169,2
303,145605,True,47.1169681,-122.5685433,Quartermaster Rd,98498,1
304,145604,True,47.0987868,-122.374551,17404 44th Avenue East,98446,1
305,145603,True,47.097647,-119.984624,344 Silica Rd NW,98848,1
306,145602,True,47.093942,-122.6260623,100 Barksdale Avenue,98327,1
307,145601,True,47.0920691,-122.6422247,975 Ross Avenue,98327,1
308,145599,True,47.071917,-122.976675,2700 Evergreen Pkwy NW,98505,2
309,145598,True,47.069827,-122.773312,2555 Marvin Rd NE,98516,1
310,145596,True,47.0616742,-122.7708595,8000 Freedom Ln NE,98516,1
311,145595,True,47.059659,-122.77201,1401 Galaxy Dr. NE,98516,2
312,145594,True,47.056464,-122.754372,211 Hoh Street Southeast,98516,1
313,145592,True,47.052857,-122.84707,413 Lilly Road NE,98506,1
314,145591,True,47.0479529,-122.8986776,500 Adams St NE,98501,2
315,145590,True,47.0474918,-122.9395438,3010 Harrison Ave NW,98502,1
316,145589,True,47.04679,-122.80809,300 Desmond Dr SE,98516,1
317,145588,True,47.044572,-122.836183,651 Sleater Kinney Rd SE,98503,1
318,145586,True,47.042021,-122.938312,625 Black Lake Blvd,98502,1
319,145585,True,47.040004,-122.901951,128 SW 10th Ave,98501,1
320,145584,True,47.038249,-122.89884,208 11th Ave SE,98501,1
321,145582,True,47.035854,-122.894952,505 14th Ave SE,98501,1
322,145581,True,47.027591,-122.920591,2404 Heritage Court SW,98502,1
323,145579,True,47.023179,-122.922337,1520 Irving St SW,98512,1
324,145577,True,47.0002897,-122.6682861,12819 Yelm Hwy SE,98513,1
325,145576,True,47.0001351,-122.8280101,4501 Intelco Loop SE,98503,1
326,145575,True,46.99353,-122.908081,6131 Capital Blvd SW,98501,2
327,145571,True,46.978901,-120.543425,1406 Canyon Road,98926,2
328,145569,True,46.971813,-122.888172,8005 River Dr.,98501,1
329,145492,True,46.7867515,-121.7337654,Paradise Inn,98368,1
330,145484,True,46.755816,-122.120894,55210 238th Ave E,98304,1
331,145481,True,46.750241,-121.812778,47015 Paradise Rd E,98304,1
332,145480,True,46.749419,-121.8134089,47009 Paradise Rd E,98304,1
333,145477,True,46.7323937,-117.1643737,Terrell Parking Garage Cougar Way,99163,1
334,145474,True,46.7300662,-117.1690861,305 NE Spokane Street,99163,1
335,145473,True,46.7296753,-117.1613929,Smith Center Parking Garage Stadium Way,99163,1
336,145468,True,46.7153349,-122.96069,600 Centralia College Blvd.,98531,1
337,145466,True,46.710251,-122.986879,914 S Scheuber Road,98531,1
338,145461,True,46.67925,-122.975256,1701 NW Louisiana Ave,98532,3
339,145452,True,46.6601257324219,-118.861183166504,"138â€“306 S Columbia Ave, Connell, WA 99326, United States",99326,2
340,145444,True,46.60415,-120.502966,17 N 3rd St,98901,1
341,145443,True,46.60252,-120.47924,1600 East Chestnut Ave.,98901,2
342,145430,True,46.489666,-120.407303,420 Windy Point Dr,98951,1
343,145406,True,46.3455914,-124.060608,409 Sid Snyder Dr.,98631,1
344,145387,True,46.229119,-119.106522,1411 W Clark,99301,1
345,145376,True,46.195494,-119.265577,10799 Ridgeline Dr.,99338,2
346,145365,True,46.139875,-122.901263,351 Three Rivers Dr.,98626,2
347,145363,True,46.131351,-122.935973,961 12th Ave,98632,1
348,134792,True,48.937845,-122.667679,8115 Birch Bay Square,98230,1
349,134649,True,47.2980038337866,-122.248462179635,1101 Outlet Collection Way,98092,1
350,133956,True,48.0799038388553,-123.097485777977,150 N. Govan Ave.,98382,1
351,133396,True,47.589123,-120.672887,505 Hwy 2,98826,1
352,131386,True,46.495156,-120.4206332,420 Windy Point DR,98951,1
353,131371,True,47.610142,-122.331887,601 Union St,98101,1
354,130289,True,47.610024,-122.332078,601 Union Street,98101,1
355,130256,True,46.022244,-118.410638,28 Roland CT,99362,1
356,129508,True,48.240444,-122.4555,818 N Sunrise BLVD,98282,1
357,128635,True,46.014123,-118.310165,3853 Powerline RD,99362,1
358,127029,True,46.0684299,-118.3302973,345 Boyer Ave,99362,1
359,126219,True,47.5426997812143,-122.637375678991,701 Frederick Ave,98366,1
360,121722,NA,48.7391984,-122.4851568,516 High Street (MS9114),98225,1
361,121718,NA,47.665596,-117.190123,15727 E Broadway Ave,99307,2
362,121717,NA,47.664665,-122.110232,17275 NE 67th Ct,98052,1
363,121716,NA,47.62812,-122.374907,1201 Amgen Court West,98119,1
364,121715,True,47.6139552439125,-117.503519514739,6510 W THORPE RD,99224,1
365,121713,NA,47.206448,-122.405625,1721 E 56th St,98404,1
366,121711,NA,46.7250165,-124.0206708,4112 State Route 105,98590,1
367,118404,True,47.457152,-122.25163,223 Andover Park E,98188,1
368,117132,True,47.609629,-122.333133,1325 6th Ave,98101,1
369,116527,NA,48.98807,-119.42111,299 Eastlake Rd,98844,1
370,116521,NA,47.886161,-120.162695,135 Wapato Wy,98831,1
371,116520,NA,47.7811507,-122.3457541,24015 84th Ave W,98026,2
372,116519,NA,47.769835,-122.148018,19501 144th Ave NE,98072,1
373,116518,NA,47.767847,-120.647931,19115 Chiwawa Loop Rd,98826,1
374,116517,NA,47.732964,-122.141228,14850 NE 145th St,98072,1
375,116516,NA,47.6861542,-122.1393931,15110 NE 95th St,98052,1
376,116515,True,47.6670417785645,-117.110450744629,21900 E Country Vista Dr,99019,1
377,116514,NA,47.6626930236816,-117.346687316895,602 N. Havana,99202,1
378,116513,NA,46.585064,-120.545954,2708 W. Nob Hill Boulevard,98902,1
379,116512,NA,47.647793,-122.406511,3038 39th Ave W,98199,1
380,116510,NA,47.636676,-122.14,14700 NE 29th Pl,98007,1
381,116508,NA,47.6078691,-122.3196562,600 Broadway,98122,1
382,116507,NA,47.5823364,-122.1586436,13800 SE 32nd St,98005,1
383,116504,NA,47.5782552,-122.1713698,3545 Factoria Blvd SE,98006,1
384,116503,NA,47.552479,-120.683708,7375 Icicle Rd,98826,1
385,116502,NA,47.544345,-122.041774,1301 4th Ave NW,98027,1
386,116499,NA,47.516794,-121.840364,37500 SE N Bend Wy,98065,1
387,116497,,47.467463,-120.336918,148 Easy St,98801,2
388,116496,NA,47.1867046,-122.4851723,7802 S Tacoma Way,98499,1
389,116495,NA,47.17594,-122.506561,4500 Steilacoom Blvd SW,98499,1
390,116494,NA,47.065724,-122.792317,6655 Britton Parkway NE,98516,1
391,116490,NA,46.798296,-123.012246,19947 Old Highway 99 SW,98579,1
392,116488,NA,46.604239,-120.481583,1600 E Yakima Ave,98901,2
393,116481,NA,46.085975,-118.278024,760 C St,99362,1
394,115231,True,46.31017,-117.99763,700 Artisan Wy,99328,1
395,114177,True,47.189262,-120.902714,811 Wa-970,98922,1
396,114095,True,47.661523,-122.324913,324 Ne 45th St,98105,1
404,113598,NA,48.479357,-120.186033,100 Riverside Ave,98862,1
405,113591,NA,47.7669206,-122.1919406,19121 112th Ave NE,98011,1
406,113590,NA,47.766732,-122.209275,9834 NE 190th Street,98011,1
407,113589,NA,47.759665,-122.250898,6704 NE 181st Street,98028,1
408,113588,NA,47.7132239,-122.2984152,11536 Lake City Way NE,98125,2
409,113586,NA,47.650328,-122.307574,1959 NE Pacific St,98195,1
410,113583,NA,47.554698,-122.046539,5150 220th Ave SE,98029,1
411,113582,True,47.548071,-122.039957,6100 E Lake Sammamish Pkwy SE,98029,1
412,113581,NA,47.320954,-122.13822,31001 144th Ave SE,98042,1
413,113173,True,48.4352786,-122.57973049999998,14362 Jura Ln,98221,1
414,112826,True,47.663363678888125,-122.10398593079843,17725 NE 65th,98052,1
415,112603,NA,47.5403588,-122.0200254,1355 Highlands Dr NE,98029,1
416,112206,NA,48.893943,-122.2804609,3825 Cabrant Rd,98247,1
417,112192,NA,48.7885917,-122.5060156,4040 Northwest Avenue,98226,1
418,112099,NA,47.96937,-123.86338,12076 Sol Duc Hot Springs Rd,98363,1
419,112098,NA,47.9437103271484,-117.47745513916,1100 S Main,99006,1
420,112090,NA,47.7989009,-122.3025001,21975 52nd Ave W,98043,1
421,112089,NA,47.796905,-122.1947911,22213 30th Drive SE,98021,1
422,112086,NA,47.7868804931641,-117.354072570801,3812 E Highland Rd,99021,1
423,112085,NA,47.776288,-117.547208,9711 W Charles Road,99026,1
424,112084,NA,47.773663,-122.181478,20111 120th Ave NE,98011,1
425,112083,NA,47.768802,-117.401944,438 E Hasting Rd.,99218,3
426,112082,NA,47.753088,-117.419316,300 W Hawthorne Rd,99251,1
427,112081,NA,47.7405128479004,-117.413856506348,9107 N Country Homes Blvd,99208,1
428,112079,NA,47.712474822998,-117.408920288086,6001 N MAYFAIR,99208,1
429,112078,NA,47.700624,-117.425573,4616 N Monroe St,99205,1
430,112077,NA,47.700101,-122.32406,9800 4th Ave NE,98115,2
431,112072,NA,47.6785774230957,-117.323188781738,6021 E Mansfield,99212,1
432,112071,NA,47.675721,-117.460599,3410 W Fort George Wright Dr,99224,1
433,112070,NA,47.6748008728027,-117.095817565918,22924 East Apple Way Ave,99019,1
434,112069,NA,47.674605,-117.363546,1810 N Greene BLDG 8,99217,1
435,112068,NA,47.67448999999982,-117.09182200000066,2111 N Molter Rd,99019,1
436,112067,NA,47.672004699707,-117.386222839355,1601 E Mission Ave.,99216,1
437,112065,NA,47.6703323,-122.3536061,601 N 59th St,98103,1
438,112064,True,47.67166996829479,-117.10299180489204,1421 N Meadowwood Ln,99019,1
439,112063,NA,47.6708755493164,-117.176368713379,17016 E Indiana Ave,99016,1
440,112062,True,47.67055678693046,-117.10318578570832,E. Mission Ave,99019,3
441,112061,NA,47.669752,-117.416056,1330 N. Washington St,99201,1
442,112060,NA,47.6656646728516,-117.414558410645,217 W CATALDO,99201,1
443,112059,NA,47.6619110107422,-117.405235290527,412 E. SPOKANE BLVD,99210,1
444,112058,NA,47.6587524414062,-117.36905670166,2800 EAST MAIN AVE,99202,1
445,112056,NA,47.653614,-117.4301786,1208 W 3rd Ave,99201,1
446,112055,NA,47.6463623046875,-117.426719665527,926 S Monroe,99204,1
447,112053,NA,47.6426849365234,-117.471832275391,1405 S RUSTLE RD,99224,1
448,112052,True,47.64227974086509,-117.5609562397043,10811 Highway 2,99224,1
449,112049,NA,47.6297149658203,-117.53572845459,2726 Flint RD,99224,1
450,112048,NA,47.6281852722168,-117.227256774902,13211 E 32nd Ave,99216,1
451,112046,NA,47.6260452270508,-117.401466369629,3103 S Grand Blvd,99203,1
452,112044,NA,47.6176300048828,-122.133438110352,805 156th NE,98007,1
453,112043,NA,47.615406,-122.179559,616 120th Aveneue NE,98005,1
454,112042,NA,47.6055171,-124.3715566,157151 Hwy 101,98331,1
455,112037,True,47.59015053137466,-117.56558954716297,10810 W Westbow Rd,99224,2
460,112036,NA,47.579971,-122.312333,2535 16th Ave S,98144,2
461,112035,NA,47.5716209411621,-117.681549072266,210 S BROAD ST,99022,1
462,112017,NA,47.47425,-122.233827,620 Naches Ave SW,98057,1
463,112016,NA,47.4715464,-122.2320023,923 Powell Ave SW,98057,1
464,112009,NA,47.3866016,-122.1020244,24012 180th Ave SE,98042,1
465,112001,NA,47.234898,-122.429536,2702 E D St,98421,3
466,111999,NA,47.195359,-124.196082,169 Blackberry St,98356,1
467,111998,NA,47.156078338623,-117.364448547363,1171 Baired Rd,99170,1
468,111997,NA,47.10579,-122.539,McKinley Ave & Garfield St,98433,1
469,111993,True,47.040284,-124.158504,78 SR 115,98569,1
470,111991,NA,47.0110893249512,-122.896057128906,3939 Cleveland Ave.,98501,1
471,111990,NA,47.0091781616211,-117.144508361816,405 W California,99130,1
472,111985,NA,46.966703,-123.80172,300 S Boone St,98520,1
473,111953,NA,46.7297336,-117.1563327,2000 Grimes Way,99164,1
474,111952,NA,46.728904,-117.176165,150 E Spring St.,99163,3
475,111947,NA,46.677105,-120.478546,51 Firing Center Rd,98901,3
476,111912,NA,46.426155090332,-117.054946899414,849 Port Way,99403,1
477,111908,NA,46.4019737243652,-117.044708251953,1443 TERRACE DR,99403,1
478,111873,NA,46.241729,-119.124176,2411 W Court St,99301,3
479,111865,NA,46.181372,-119.184406,2901 Southridge Blvd,99337,3
480,111864,NA,46.179735,-119.188128,2921 Southridge Blvd,99336,3
481,111851,NA,46.0705799,-118.3306351,147 South Park Street,99362,1
482,109587,True,47.884887,-120.156959,135 Wapato Wy,98831,1
483,109414,True,47.598476,-120.656055,1329 Us-2,98826,1
484,109181,True,47.551769,-120.680327,7375 Icicle RD,98826,1
485,108666,True,47.6051414,-122.5328157,4450 Blakely Avenue,98110,1
486,108592,True,48.545615351948854,-117.90547140422973,224-B N Main St,99114,1
487,106190,NA,48.938283,-119.436456,1320 Main St,98844,1
488,106188,NA,47.883847,-120.154608,25 Wapato Way,98831,1
489,106187,NA,47.7725,-122.3315,2326 North 197th Place,98113,1
490,106186,NA,47.637692,-122.5135823,1329 Wintergreen Lane Northeast,98110,1
491,106185,NA,47.547708,-122.3527083,6000 16th Ave SW,98106,2
492,106184,NA,47.39125,-119.483647,334 Daisy St N,98851,1
493,106183,NA,47.359935,-122.103668,17700 SE 272nd Street,98042,1
494,104788,True,47.305772,-122.579191,5268 Point Fosdick DR NW,98335,1
495,104024,True,46.604039,-120.494574,802 E Yakima Ave,98901,1
496,103793,True,46.202588,-123.384133,69 Main St,98612,1
497,103383,NA,48.692979,-122.904798,112 Haven Rd,98245,1
498,103382,NA,48.648792,-122.868418,410 Ocean Mist Way,98245,1
499,103381,NA,48.641279,-122.781015,107 Doe Bay Rd,98279,1
500,103379,NA,48.561173,-123.164341,16 Sweet Earth Ln,98250,1
501,103378,NA,48.530774,-122.914874,25 Tuatara Rd,98261,1
502,103377,NA,48.521863,-122.909571,2225 Fisherman Bay Rd,98261,1
503,103376,NA,48.514655,-123.028884,322 Daniel Ln,98250,1
504,103375,NA,48.457448,-122.335866,448 Fashion Way,98233,2
505,103374,NA,48.050182,-122.819019,63 Four Corners Rd,98368,1
506,103372,NA,47.769184,-122.37546,1408 NW Richmond Beach Road,98177,1
507,103371,NA,47.767496,-122.155194,19211 Woodinville Snohomish Rd,98072,1
508,103370,NA,47.748101,-122.361178,16101 Greenwood Ave N,98133,1
509,103365,NA,47.6186971,-122.3523486,200 Denny Way,98109,2
510,103364,NA,47.6155533,-122.3228502,1609 Harvard Ave,98122,2
511,103363,NA,47.587,-122.1593558,13545 SE 26th St,98005,1
512,103362,NA,47.5786138,-122.1652907,3625 132nd Avenue Southeast,98006,1
513,103361,NA,47.5766937,-122.1671315,12920 Southeast 38th Street,98006,1
514,103360,NA,47.54894,-122.04991,999 Lake Dr,98027,1
515,103359,NA,47.5419455,-122.3243279,6701 Corson Ave S,98108,3
516,103358,NA,47.374141,-123.155375,21971 N US Highway 101,98584,1
517,103356,NA,47.255854,-122.44172,747 Market St,98402,1
518,103355,NA,47.24745538956,-122.20054897354,6821 Udall Place Southeast,98092,1
519,103353,NA,47.0972315,-122.4016275,17520 22nd Ave East,98387,1
520,101436,True,47.51865,-121.841773,37500 Se N Bend Wy,98065,1
521,101218,True,47.612347,-122.334168,1531 7th Ave,98101,1
522,101159,True,47.842476,-120.098099,565 S Lakeshore DR,98816,1
523,99748,True,47.896557,-120.132386,300 Ivan Morse RD,98831,1
524,99601,True,47.846714,-122.271389,2902 164th Street Southwest,98087,1
525,97157,NA,48.178637,-122.12541,20227 77th Ave NE,98223,1
526,97156,NA,47.6682011,-117.3972138,821 E Boone Ave,99202,1
527,97152,NA,47.3393418,-122.5903137,8828-8844 N Harborview Dr,98332,1
528,97151,NA,47.3292908,-122.5789785,3025 Harborview Dr,98335,1
529,95817,True,47.550984,-122.057823,1801 12th Ave NW,98027,1
530,95516,True,47.3015320653164,-122.5769055978,4709 Point Fosdick Dr NW,98335,1
531,94828,NA,47.436037,-122.296325,18613 International Blvd,98188,2
532,93581,True,47.240392,-124.217215,4849 Pacific Ave,98562,1
533,92884,True,47.612213,-122.198039,10628 Ne 2ND St,98004,1
534,92882,True,47.10335,-119.251036,2380 S Maiers RD,98837,1
535,91855,NA,47.6527826,-117.4349173,1500 W 4th Ave,99201,1
536,91854,NA,47.635347,-122.137519,2752-2836 152nd Ave NE,98052,1
537,91853,NA,47.622309,-122.341952,400 Dexter Ave N,98109,1
538,91606,True,46.213187,-119.286497,1106 N Jurupa St,99338,1
539,91046,True,48.987053,-119.425912,299 Eastlake RD,98844,1
540,90932,True,47.769459,-122.151217,19501 144th Ave Ne,98072,1
541,90722,True,47.207984,-121.019499,3600 Suncadia TRL,98922,1
542,90714,True,48.212441,-122.183491,3438 Stoluckquamish Lane,NA,1
543,90189,NA,48.927904,-122.648343,3063 Creasy Rd,98240,1
544,90188,True,48.7055893188912,-119.438371550381,209 N Whitcomb,98855,1
545,90187,NA,48.417791,-122.334633,105 E Kincaid St,98273,1
546,90185,,48.009356,-119.672953,1206 Columbia Ave,98813,1
547,90183,NA,47.812283,-122.540023,27618 Hansville Rd NE,98346,2
548,90182,NA,47.759386,-122.650992,21992 Viking Way NW,98370,2
549,90179,NA,47.702714,-122.334822,10049 Collget Way N,98133,1
550,90178,NA,47.6789249,-117.4343555,1504 W Northwest Blvd,99205,1
551,90176,NA,47.612639,-122.204672,10201 NE 4th St,98004,1
552,90175,NA,47.60692,-122.1987223,"7525 SE 4th Street, Suite 180",98040,1
553,90173,NA,47.6059528,-122.0373912,301 - 228th Avenue SE,98074,1
554,90171,NA,47.565076,-122.32205,4200 Airport Way S,98134,1
555,90170,NA,47.561305,-122.654061,200 Charleston Blvd,98312,1
556,90168,NA,47.538387,-122.293403,3001 S Myrtle St,98108,1
557,90167,NA,47.5363945,-122.2280594,7447 84th Ave SE,98040,1
558,90166,NA,47.531819,-120.300871,6151 US 97 Alternate,98801,1
559,90165,NA,47.520043,-122.344155,9200 8th Ave SW,98106,1
560,90164,NA,47.504354,-122.516213,10384 SE Sedgwick Rd,98366,2
561,90163,NA,47.463409,-120.331529,285 Technology Center Way,98801,1
562,90162,NA,47.440847,-122.213095,4109-4251 Talbot Rd S,98055,1
563,90160,NA,47.42101,-121.791179,19901 Cedar Falls Rd SE,98045,1
564,90150,NA,46.593176,-120.550383,2811 Tieton Dr,98902,1
565,90147,NA,46.3493393,-124.0535196,406 Oregon Ave S,98631,1
566,89174,True,48.06217,-123.168319,303 Sunny View DR,98382,1
567,89098,True,47.625675,-122.346886,500 5th Ave N,98109,1
568,88416,True,47.17669,-122.2931,1515 S Meridian,98371,1
569,88346,True,46.271849,-119.269167,486 Bradley BLVD,99352,1
570,88334,True,47.625378,-122.344596,601 Roy St,98109,1
571,87966,True,46.281294,-119.273452,1060 George Washington Wy,99352,1
572,86535,True,47.862572,-121.976585,18805 Us-2,NA,1
573,86221,True,47.661869,-122.315415,4501 12th Ave Ne,98105,1
574,86220,True,47.642631,-117.537533,9015 W Hwy 2,99224,1
575,85491,True,48.101579,-123.477119,334 Benson RD,98363,1
576,85379,True,46.545331,-122.508967,186 Skyview DR,98564,1
577,84993,True,47.617601,-122.193492,11010 Ne 8th St,98004,1
578,84906,True,48.149618,-123.153648,630 Marine DR,98382,1
579,84770,True,47.914774,-124.544249,473 Mora RD,98331,1
580,82691,True,47.611844,-122.193618,200 110th Ave,98004,1
581,82672,True,47.673676,-117.201827,15015 E Indiana Ave,99216,1
582,82592,True,47.614141,-122.336357,620 Stewart St,98101,1
583,82585,True,47.732864,-122.147196,14850 Ne 145th St,98072,1
584,82545,True,47.622544,-122.333913,400 Fairview Ave N,98109,1
585,82406,True,47.671225,-122.122192,7401 164th Ave Ne,98052,1
586,82360,True,46.2960713,-119.4514867,55410 N Sunset RD,99320,1
587,82307,True,46.859479,-124.108594,2858 S Forrest St,98595,1
588,82216,True,47.098792,-119.996204,344 Silica RD NW,98848,1
589,82158,True,47.610845,-122.347258,2100 Alaskan Way,98121,1
590,82146,True,48.214249,-122.184142,3438 Stoluckquamish LN,98223,1
591,82030,True,47.608043,-122.334072,411 University St,98101,1
592,81975,True,47.6049041,-122.3361893,1000 1st Ave,98104,1
593,81936,True,47.23853,-122.427213,2611 East E St,98421,1
594,81906,True,47.610166,-122.335179,1415 5th Ave,98101,1
595,80705,NA,47.6699634,-122.3847489,"5621 22nd Avenue, NW",98107,1
596,80704,NA,47.652922,-118.150361,600 7th St,99122,1
600,80701,NA,47.614035,-122.201358,410 Bellevue Way NE,98004,1
601,80386,True,48.990486,-122.774447,9565 Semiahmoo Pkwy,98230,1
602,80354,True,48.116414,-123.255357,939 Finn Hall RD,98362,1
603,80298,True,46.976679,-123.813485,416 Wishkah Street,98520-4133,1
604,80193,True,48.0396068,-122.4061314,201 Cascade Ave,98260,1
605,80079,True,47.657247,-117.423946,808 W Sprague Ave,99201,1
606,80025,True,47.656306,-117.423487,111 S Post St,99201,1
607,79988,True,46.976918,-120.54162,1620 Canyon RD,98926,1
608,79910,True,47.656578,-117.424414,10 S Post St,99201,1
609,79898,True,47.4373126,-122.2876227,18525 36th Ave S,98188,1
610,79681,True,48.041105,-122.410772,400 1st St.,98260,1
611,79584,True,47.610335,-122.341261,100 Stewart St,98101,1
612,79356,True,47.607651,-122.339418,99 Union St,98101,1
613,76267,True,48.010776,-122.533294,5511 S Freeland Ave,98249,1
614,76266,NA,47.442921,-120.316235,River Park Ave E,98801,1
615,76264,True,46.0679132,-118.3408991,6 W Rose St,99362,1
616,74995,NA,48.750634,-122.479315,1300 Commercial St,98225,1
617,74994,NA,48.7472802,-122.4762196,1220 North Forest Street,98225,1
618,74993,NA,48.537035,-121.758653,7503 N Superior,98237,1
619,74992,NA,47.6613903,-122.2992228,2623 NE 46th St,98105,1
620,73373,NA,48.64698,-118.737542,686 S Clark Ave,99166,1
621,73370,NA,47.429582,-120.315228,327 N Wenatchee Ave,98801,1
622,72693,NA,47.423003,-122.2989,2702 S 200th St,98188,1
623,72692,NA,47.3187106,-122.225391,1221 D St. NE,98002,1
624,71979,NA,46.731746,-117.157928,Johnson Hall 113,99164,1
625,71978,NA,47.6370392,-122.1991185,10600 NE 29th St,98004,1
626,71976,NA,47.558923,-122.65034,1400 Farragut Ave,98314,1
627,71974,NA,47.455189,-122.2388935,29210Naches Ave SW,98057,1
628,71973,NA,47.42094,-121.4113,519 SR 906,98068,2
629,71971,NA,47.2351706,-119.8538094,301 S Central Ave,98848,1
630,71970,True,47.0276111,-122.9123291,2300 Evergreen Park Dr SW,98502,1
631,71968,NA,46.759919,-121.981984,54922 Kernahan Rd E,98304,1
632,71447,,47.5585223972767,-120.67597925663,12790 Fish Hatchery Road,98801,1
633,71233,True,48.36191909999999,-120.12116850000001,502 South Glover Street,98856,1
634,71128,True,47.4231016221997,-121.412572026863,521 WA-906,98068,2
635,70799,NA,48.3911091,-122.4968374,100 Washington Ave,98257,1
636,69274,NA,47.677725,-122.182402,11845 NE 85th St,98033,2
637,69272,NA,47.034344,-122.89857,310 Maple Park Ave SE,98501,1
638,68712,NA,47.705984,-122.175747,11930 124th Ave NE,98034,1
639,67957,True,48.788428,-122.487718,4051 Meridian St,98226,1
640,67956,True,48.7542188,-122.4970047,1 Bellwether Way,98225,1
641,67951,NA,47.66159,-122.324877,300 NE 45th St,98105,1
642,67950,True,47.6611436,-117.4139857,322 N Spokane Falls Ct,99201,1
643,67949,True,47.6366599,-117.4775319,2010 S Assembly Rd,99224,1
644,67944,True,47.400629,-122.296834,22406 Pacific Highway S,98198,1
645,67943,NA,47.231312,-122.501372,3510 S Mullen St,98409,1
646,67942,NA,47.225367,-122.47265,3639 S Pine St,98409,1
647,67941,True,47.0389404,-122.8823223,1431 11th Ave SE,98501,1
648,67937,True,46.7513819,-121.9371888,37515 SR 706 E,98304,1
649,67935,True,46.7158367,-117.1666258,1190 SE Bishop Blvd,99163,1
650,67934,True,46.2498321,-119.1147563,2525 N 20th Ave,99301,1
651,67933,True,46.1778903,-119.189503,3715 Plaza Way,99338,1
652,67932,True,46.0890194,-118.2782343,150 E Boeing,99362,1
653,65088,NA,47.906308,-122.237601,229 SW Everett Mall Way,98204,2
654,62862,True,48.340694,-124.6628571,2726 Makah Passage,98357,1
655,62861,True,48.3334725,-124.6593842,3346 Makah Passage,98357,1
656,62860,True,48.1149208,-123.2683981,339 Finn Hall Rd,98362,1
657,62859,NA,48.112727,-123.255602,939 Finn Hall Rd,98362,1
658,62856,NA,47.7952972,-122.2115207,22232  17th Ave SE,98021,1
659,62854,NA,47.687214,-122.149213,9845  Willows Rd NE,98052,1
660,62853,True,47.6634997,-117.412423,115 W North River Dr,99201,1
661,62852,NA,47.6633515,-122.0932594,6464  185th Ave NE,98052,1
662,62850,True,47.6599508,-117.4172698,333 W Spokane Falls Blvd,99201,1
663,62848,NA,47.6309889,-117.5405336,8909 W Airport Dr,99224,1
664,62847,True,47.6270468,-122.3149606,907 14th Ave E,98112,1
665,62846,NA,47.6232795,-122.354922,118  Republican St,98109,1
666,62844,NA,47.609576,-122.202297,10333 Main St,98004,1
667,62843,NA,47.610094,-122.322135,1229 Madison St,98104,1
668,62842,True,47.6072003,-122.1888503,300 112th Ave SE,98004,2
669,62840,NA,47.577051,-122.1251642,16160 SE Eastgate Way,98008,1
670,62837,True,47.47487,-120.376005,1611 Love Ln,98801,1
671,62836,True,47.3471843,-123.0676404,10 E Alderbrook Ridge Dr,98592,1
672,62835,True,47.3191626,-122.5869706,6675 Kimball Dr,98335,1
673,62834,True,47.3138021,-122.3009753,32124 25th Ave S,98003,1
674,62831,True,47.250577,-122.439947,1320 Broadway Plaza,98444,1
675,62819,True,46.3348553,-124.0550737,4415 Pacific Way,98644,1
676,62818,NA,46.293801,-119.451333,55410 N Sunset Rd,99320,2
677,62817,True,46.091946,-118.27159,760 C St,99362,1
678,62816,True,46.087373,-118.226734,2014 Mill Creek Rd,99362,1
679,62815,True,46.0161505,-118.3837849,3796 Peppers Bridge Rd,99362,1
680,62814,True,46.01272,-118.370401,1704 J B George Rd,99362,1
681,60586,True,48.4776387,-120.256696,604 Patterson Lake Rd.,98862,2
682,58137,True,47.118593822271,-118.365558226545,1507 Bauman Street,99169,3
683,55326,True,47.767185,-120.651658,19115 Chiwawa Loop Rd,98826,1
684,55325,NA,47.6690438,-117.4025938,508 E Sharp Ave,99202,1
685,55324,NA,47.624097,-122.3463653,570 Mercer St,98109,1
686,55323,NA,47.619399,-122.346696,101 Taylor Ave N,98109,1
687,55322,True,46.1970777,-119.1615292,2811 W 10th Ave,99336,1
688,53763,NA,47.61675,-122.343295,588 Bell St,98121,1
689,52348,NA,47.6167793770035,-119.287621439148,695 N 2nd St,99115,1
690,51965,True,47.61679777748987,-119.2877707841136,9701 US Highway 2 East,99115,1
697,50867,NA,48.5006578,-122.6159562,1211 24th Street,98221,1
698,49529,True,46.7150146,-122.9543406,202 S Tower Ave,98531,1
699,49269,NA,47.6138606,-122.1815973,457 120th Ave NE,98005,1
700,49268,NA,47.2768641,-122.2134697,"4111 ""A"" Street SE",98002,1
701,48662,NA,48.989751,-122.773271,9565 Semiahmoo Pkwy,98230,1
702,48661,NA,48.120933,-123.434437,220 N Oak St,98362,2
703,48660,NA,48.11612,-122.751489,431 Water St,98368,1
704,48659,NA,48.113018,-122.760544,1220 Water St,98368,1
705,48658,NA,48.103061,-122.794143,1531 W Sims Way,98368,1
706,48657,NA,48.102409,-122.80229,2219 W Sims Way,98368,1
707,48652,NA,47.519113,-121.841787,37500 SE N Bend,98065,1
708,48651,NA,47.47015,-122.218765,101 SW Grady Way,98057,1
709,47821,NA,48.079897,-123.098996,216 E Washington St,98382,1
710,45355,,47.03956,-122.93788,2905 Capitol Mall Dr SW,98502,1
711,44960,NA,47.6250925,-117.5395602,9000 W Airport Dr,99224,1
712,44959,NA,47.611805,-122.18618,11505 NE 2nd Pl,98004,1
713,42693,NA,47.711268,-121.360495,148 5th Street N,98288,2
714,42692,NA,47.708347,-122.322015,525 NE Northgate Way,98125,1
715,42257,True,46.9941873477138,-120.54918050766,250 W 3rd Ave,98926,2
716,42166,True,46.8820712,-124.1116406,617 S South Forrest Street,98595,1
717,41598,,47.437595,-122.28737,18525 36th Ave South,US,1
718,41530,NA,47.712571,-122.571999,15347 Suquamish Way NE,98392,1
719,40990,NA,47.872727,-122.129049,8915 Cathcart Way,98296,1
720,40972,NA,47.6695961,-122.3744615,1400 NW 56th St,98107,1
721,40971,NA,47.664356,-122.283034,4800 Sand Point Way NE Seattle WA 98105,98105,1
722,40965,NA,47.6337033,-122.3258366,1551 Eastlake Ave E,98102,1
723,40950,NA,47.6126,-122.3347,600 Pine St,98101,1
724,40940,NA,47.6067371,-122.3355595,1111 3rd Ave,98101,1
725,40886,NA,46.979315,-122.914031,1430 Retsil Rd,98366,1
726,40885,NA,46.761214,-122.040397,Highway 706 E,98397,1
727,30560,NA,47.890423,-122.286971,11700 Mukilteo Speedway,98275,1
728,30536,True,47.648955408939,-120.071100034918,215 N Chelan Ave,98858,3
730,30535,True,47.8357,-120.07027,3155 US 97 Alternate,98816,3
731,30323,,48.9951,-122.75161,699 Peace Portal Drive,98230,1
732,30318,,48.53306,-123.01929,410 Spring Street,98250,1
733,30314,,48.00978851,-122.5176773,1804 Scott Rd,98249,1
734,30313,True,47.88127,-122.22382,600 128th Street SW,98204,1
735,30312,,47.817153,-122.319774,20006 64th Ave W,98036,1
736,30311,,47.70774841,-122.5833511,16285 Washington 305,98370,1
737,30310,,47.67575,-122.20297,308 Kirkland Ave,98033,1
738,30309,,47.6158690641514,-122.33719779259,2001 West 8th,98121,1
739,30308,True,47.58893,-120.67332,505 Highway 2,98826,1
740,30307,,47.444898,-122.217616,3820 East Valley Road,98057,1
741,30305,,47.01193,-120.20107,25905 Vantage Hwy,98926,1
742,30304,,46.89063,-123.71437,893 U.S. Hwy 101,98537,1
743,30302,,46.32117,-124.00618,1509 U.S. Route 101,98624,1
744,29823,NA,48.791487,-122.4923624,315 Westerly Road,98226,1
745,29822,True,48.783251,-122.483918,151 E McLeod Rd,98226,1
746,29820,NA,48.4942876,-122.4808798,10441 Bayview-Edison Road,98273,1
747,29819,NA,48.437569,-122.3254938,1800 Continental Pl,98273,2
748,29818,NA,48.2880655,-122.6482236,1270 SE Dock St,98277,2
749,29815,NA,47.864699,-122.138672,6705 Puget Park Dr,98296,1
750,29814,NA,47.854953,-121.696212,600 Orchard Ave,98251,1
751,29809,NA,47.8043649,-122.3341629,21601 76th Ave. West,98026,2
752,29808,NA,47.7911263,-122.366066,9803 Edmonds Way,98020,2
753,29804,NA,47.731273,-122.293062,14027 Lake City Way NE,98125,1
754,29802,NA,47.721254,-122.340924,12600 Stone Ave N,98133,1
755,29801,NA,47.7144349,-122.1793989,12039 NE 128th St,98034,1
756,29797,NA,47.699613,-122.341922,1300 N 97th St,98103,1
757,29794,NA,47.6784759,-122.2068063,123 5th Ave,98033,2
758,29791,NA,47.6595352,-122.3425815,4301 Stone Way N,98103,1
759,29789,NA,47.6584089,-122.3183925,4225 Roosevelt Way NE,98105,1
760,29786,NA,47.644759,-122.199166,10610 NE 38th Pl,98033,1
761,29785,NA,47.6434463,-122.2039041,10210 NE Points Dr,98033,1
762,29784,NA,47.6382693,-122.1912938,3100 Northup Way,98004,1
763,29783,NA,47.63811493,-122.1882,2901 115th Ave NE,98004,1
764,29776,NA,47.62313,-122.3314419,1250-1282 Republican St,98109,1
765,29775,,47.622085,-122.347124,516 Harrison St,98109,1
766,29774,NA,47.617784,-122.121908,999 164th Ave NE,98008,1
767,29772,NA,47.619749,-122.196969,10710 NE 10th St,98004,1
768,29768,NA,47.6165569,-122.1537017,647 140th Ave NE,98005,1
769,29767,NA,47.6164637,-122.3305049,1100 Olive Way,98101,1
770,29764,NA,47.6138831,-122.3394055,2121 6th Ave,98121,1
771,29763,NA,47.614911,-122.3144085,1525 14th Ave,98122,1
772,29758,NA,47.6059837,-122.3387451,1200 Western Ave,98101,1
773,29755,NA,47.597293,-122.188069,1300 114th Ave SE,98004,2
774,29754,NA,47.594042,-122.317179,805 S Charles St,98134,1
775,29753,NA,47.5866676,-122.2340887,7707 SE 27th St,98040,1
776,29751,NA,47.582934,-122.323106,2203 Airport Way S,98134,1
777,29750,NA,47.582366,-122.135279,15395 SE 30th Pl,98007,2
778,29749,NA,47.581818,-122.154091,3180 139th Ave SE,98005,2
779,29748,NA,47.57952,-122.321401,2700 Airport Way S,98134,1
780,29747,NA,47.571399,-122.330911,225 S Spokane St,98134,1
781,29746,NA,47.565149,-122.353024,4209 W Marginal Way SW,98106,1
782,29745,NA,47.563713,-122.625418,60 Washington Ave,98337,2
783,29744,NA,47.557801,-122.675335,501 W Hills Blvd,98312,1
784,29743,NA,47.5500374,-122.05793,1775 12th Ave NW,98027,1
785,29741,NA,47.5448747,-122.019768,9th Ave NE,98027,1
786,29736,NA,47.4847291,-122.1774112,781 Monroe Ave NE,98056,1
787,29735,NA,47.483635,-122.170748,3555 NE 2nd St,98056,1
788,29733,NA,47.474537,-122.204976,1055 S Grady Way,98057,1
789,29732,NA,47.44851,-120.331437,1730 N Wenatchee Ave,98801,1
790,29730,True,47.4249435,-120.3078886,8 N Worthen Ave,98801,1
791,29728,True,47.40051863099247,-120.28001531062012,555 3rd St SE,98802,2
792,29727,NA,47.3038902,-122.5209427,Five Mile Dr,98407,2
793,29726,NA,47.3018999,-122.5795417,4928 Point Fosdick Dr NW,98335,1
794,29722,NA,47.2592999,-122.4342402,326 E D St,98421,1
795,29721,NA,47.254354,-122.439616,923 Commerce St,98402,1
796,29720,NA,47.253668,-122.446141,930 Tacoma Ave S,98402,1
797,29716,NA,47.2459335,-122.4339797,1801 Dock St,98402,1
798,29713,NA,47.2269249,-122.4752808,3001 S 36th St,98409,2
799,29712,NA,47.244104,-122.383139,1403 34th Ave E,98424,1
800,29709,NA,47.1293765,-119.2791367,306 Ash Street,98837,1
801,29708,NA,47.1282303,-123.1032689,Salish Cliffs Dr,98584,1
802,29707,True,47.1167458,-118.3677762,105 W Galbreath Way,99169,1
803,29705,NA,47.056479,-122.762767,8333 Martin Way East,98516,1
804,29704,NA,47.0448924,-122.8953042,601 4th Ave E,98501,1
805,29703,NA,47.0433044,-122.8629684,2711 Pacific Ave SE,98501,1
806,29702,NA,47.0408639,-122.8915832,900 Plum St SE,98501,1
807,29698,True,46.9768472,-120.54101,1620 Canyon Rd,98926,5
808,29687,NA,46.590246,-120.500687,1010 S 1st St,98901,1
809,29682,NA,46.2601764,-119.2808141,1201-1299 Aaron Dr,99352,1
810,29681,NA,46.213233,-119.162367,3020 W Clearwater Ave,99336,1
811,29680,NA,46.1419219,-122.9401915,1810 Maple Street,98632,1
812,29677,NA,46.051228,-122.301754,16835 Lewis River Rd,98616,1
813,24665,True,47.8412008555217,-120.017339827457,"137 E Johnson AVE,",98816,1
814,24653,True,47.69200194931095,-121.87922090635766,10528 344th Ave NE,98014,1
815,22232,True,47.61947,-122.338948,101 Westlake Ave N,98109,1
816,21816,True,47.5804361579088,-122.335027596838,2401 Utah Ave South,98134,1
817,21353,NA,47.620091,-122.319741,215 10th ave E,98102,1
818,21233,True,47.75796408188732,-120.7408618927002,15361 US 2,98826,1
819,21087,True,48.05210945901801,-119.9023711681366,233 Lakeshore Drive,98846,4
820,20043,True,48.5947118863774,-120.404995679855,15 Country Road,98833,2
821,19864,True,47.8402020765541,-120.019626617432,104 E Woodin Avenue,98816,1
822,19863,True,48.4215612239711,-119.503623247147,912 Koala Drive,98841,1
823,19718,True,48.4766696527265,-120.17970085144,316 Castle Ave,98862,1
824,18993,True,48.05093,-122.69102,7180 Flagler Road,98358,1
825,18696,True,46.729732,-122.977454,1200 Lum Rd ,98531,1
826,18695,True,48.509771,-122.338627,9384 Old Highway 99,98233,1
827,18676,NA,47.299454,-122.575998,4709 Point Fosdick Dr NW,98335,2
828,18562,True,48.09367,-122.81332,83 Denny Ave,98368,1
829,17111,NA,47.547047,-122.063633,1500 18th Ave NW,98027,2
830,17033,True,48.07991,-123.10577,224 W. Washington St,98382,1
831,16903,True,48.770627,-122.448807,3005 Cinema Place,98226,1
832,16115,True,47.427765,-120.312296,200 N Columbia St,98801,2
833,16114,True,47.595491,-120.66433,700 US Highway 2,98226,2
834,16113,True,48.455509,-122.340923,448 Fashion Way,98233,2
835,16112,True,48.7311539,-122.47117500000002,222 36th Street,98225,2
836,13981,NA,47.868914,-121.987449,14405 179th Ave SE,98272,2
837,13913,NA,47.808371,-122.208706,20812 Bothell-Everett Hwy,98201,2
838,13896,NA,47.2391586,-122.4975967,2502 South Tyler Street,98405,2
839,13895,NA,47.604906,-122.330278,700 5th Ave,98124,2
840,13679,,47.15546417,-122.2814713,1007 39th Ave,98374,2
841,13678,,47.54508591,-122.3086014,6500 Ursula Place South,98108,2
842,13677,,47.756234,-122.313048,17518 15th Ave NE,98155,1
843,13676,,47.480555,-122.217987,275 Rainer Ave S,98056,1
844,13674,,47.358799,-122.164824,27112 132nd Ave SE,98042,1
845,13673,,47.5024975,-122.1780033,3011 NE Sunset Blvd,98056,1
846,13672,,47.935727,-122.218396,6807 Evergreen Way,98203,1
847,13671,,47.488276,-122.163701,4105 NE 4th St,98059,1
848,13670,,47.863147,-122.141511,6705 Puget Park Drive,98296,1
849,12909,True,46.276112,-122.910257,204 W. Cowlitz Drive,98611,2
850,12903,,47.5944723,-122.6294606,3333 Wheaton Way,98310,1
851,12901,,47.2136032,-122.5366189,7451 Crique Dr W,98467,1
852,12900,,47.171582,-122.517619,9505 Bridgeport Way SW,98499,1
853,12898,,48.508154,-122.611842,909 17th Street,98221,1
854,12897,,47.147143,-122.433631,12105 Pacific Ave,98444,1
855,12896,,47.1809341,-122.4340492,8405 Pacific Ave,98444,1
856,12895,,47.20619,-122.434402,5602 Pacific Ave,98408,1
857,11692,True,48.7562003,-122.4556561,1410 Iowa Street,98229,1
858,11592,,48.926595,-122.645917,"Exit 269, Southbound I-5",98240,1
859,11573,,46.725431,-122.974423,817 Harrison Ave,98531,2
860,11570,,47.862059,-121.814826,320 Main Street,98294,2
861,9819,,47.142555,-123.093073,130 SE Lynch Road,98584,1
862,9817,,47.42421,-122.25665,19802 62nd Ave S,98032,2
863,9816,,48.10173035,-122.1826859,3713 116th St NE,98271,2
864,9765,,47.27466202,-122.4667664,2216 N 30th St,98407,2
865,9679,,47.5454644,-122.3764202,6330 35th Ave SW,98126,1
866,9678,,47.6680579,-122.3762063,5409 15th Ave NW,98107,1
867,9677,,47.6906401,-122.3767497,8500 15th Ave NW,98117,1
868,9676,,47.517917,-122.354531,9456 16th Ave SW,98106,1
869,9675,,47.659544,-122.368454,915 NW 45th St,US,1
870,9673,,47.70818,-122.318251,859 NE Northgate Way,98125,1
871,9672,,47.810806,-122.322906,20725 Hwy 99,98036,1
872,9671,True,48.39920044,-122.3335037,306 Anderson Rd,98273,2
873,9670,,47.386358,-122.205952,10201 SE 240th St,98030,1
874,9443,,47.59001541,-122.2285461,8236 SE 24TH STREET,98040,2
875,9442,,47.57238007,-122.2232132,4120 86TH AVE. SE,96164,2
876,9441,,47.57726669,-122.2098236,9611 SE 36TH STREET,98040,2
877,9108,,47.22884,-122.4691,2401 South 35th St,98409,1
878,9107,,47.44470215,-122.2145004,4033 Talbot Rd S,98055,2
879,9106,,47.44296646,-122.2127228,400 S 43rd ST,98058-5010,2
880,9104,,47.60159302,-122.036705,801 228th Ave SE,98075,2
881,8971,,47.56883621,-122.1452942,14509 SE Newport Way,98006,2
882,8970,,47.61823273,-122.1225052,999 164th Ave NE,98008,2
883,8723,,46.99416733,-120.5491791,207 N Main St,98926,2
884,8703,,47.54298,-122.06151,1575 NW Maple St,98027,2
885,8661,,47.43399429,-122.2731323,4800 S 188th St,98188,2
886,8400,,47.593117,-122.32609,1045 6th Avenue South,98134,1
887,8387,,47.07155,-122.97367,2700 Evergreen Parkway NW,98505,2
888,8376,,47.03429,-122.94066,1313 Cooper Point Rd SW,98502,1
889,8356,,47.04715,-122.8463,3480 Martin Way E,98501,1
890,8352,,47.04374,-122.82242,500 College Street SE,98503,1
891,8339,,47.2263031,-122.535675,3610 Drexler Drive W,98466,2
892,8338,,47.22778,-122.48462,3628 S 35th St,98409,2
893,8336,,47.22195816,-122.4785233,3130 South 38th St.,98409,2
894,8335,,48.75574,-122.45412,1516 Iowa St,98229,1
895,8334,,47.81116867,-122.3773117,121 5th Ave N,98020,2
896,8332,,47.47004,-122.33891,14900 4th Ave SW,98166,2
897,8331,,47.45826,-122.3331,16042 First Avenue South,98148,1
898,8328,True,47.58038507945131,-122.33476283133223,2401 Utah Ave S,98134,1
899,8327,,47.69737244,-122.3431473,1140 N. 94th Street,98103,2
900,8326,,47.61578751,-122.3334198,1823 Terry Ave,98101,2
901,8325,,47.59785,-122.32814,"505 Fifth Ave S, Suite 900",98104,1
902,8324,,47.77816,-122.34482,24325 Highway 99,98026,1
903,8323,,47.58076859,-122.3232574,2450 8th Ave S,98134,2
904,8322,,47.59586,-122.31606,1200 S Dearborn St,98144,1
905,8321,,47.44259,-122.29596,17801 Pacific Hwy,98158,1
906,8320,,47.4375,-122.22374,3401 E Valley Hwy S.,98058,1
907,8319,,47.73120117,-122.2499847,14500 JUANITA DR NE,98028,2
908,8318,,47.9028,-122.24702,10500 Highway 99 S,98204,2
909,8317,,47.4985,-122.20449,810 North 10th Pl,98057,1
910,8316,,47.66917801,-122.1977921,787 6th Street South,98033,2
911,8315,,47.61722,-122.18371,11815 NE 8TH St,98005,1
912,8314,,47.97751,-122.20465,3000 Oakes Ave,98201,2
913,8313,,47.6397171,-122.1328049,15590 NE 31st Street,98052,2
914,8312,,47.64388275,-122.1285019,3801 159th Ave NE,98052,2
915,8310,,47.54448318,-122.0180893,970 NE High St,98029,2
916,8304,,46.59223,-120.50259,910 S 1ST St,98901,1
917,8301,,46.31281,-119.97607,61 E Allen Rd,98944,1
918,8300,,46.23669,-119.12974,928 N 28th Avenue,99301,1
919,8291,,47.67335,-117.38881,1411 East Mission Avenue,99252,1
920,6674,,47.97725,-122.206369,3000 Rockefeller Ave,98201,3
921,5842,True,47.0053678444526,-120.593147277832,NA,NA,1
922,5841,True,47.0043142849269,-120.542936325073,1200 N D. Street,NA,1
923,5840,True,46.9982851835622,-120.534782409667,NA,NA,1
924,5839,True,47.1215413752817,-118.365325927734,NA,NA,1
925,5838,True,47.6569473678803,-117.424364089965,NA,NA,1
926,5799,True,46.2715121129279,-119.203033447265,NA,NA,1
927,5798,True,46.7266831327847,-122.973918914794,NA,NA,1
928,5797,True,46.9727564031863,-120.191802978515,NA,NA,1
929,5795,True,47.6237522676828,-122.338771820068,NA,NA,1
930,5794,True,48.8483661141178,-122.574162483215,NA,NA,1
931,5610,,46.9546126,-123.7694889,893 U.S. Hwy 101,98537,1
932,5006,,47.614105,-122.194486,10900 NE 4th St,98004,2
933,5005,,47.615846,-122.196881,601 108th Ave NE,98004,2
934,4699,,46.047464,-118.353406,1395 Dalles Military Rd,99362,2
935,4697,,47.21978,-122.48576,4030 S Tacoma Way,98409,2
936,4696,True,47.65735433189866,-117.3121746772448,6901 E Sprague Ave,99212,2
937,4695,,47.739021,-117.409937,9000 N Division St,99218,2
938,4693,,47.448354,-122.2188,3401 E Valley Rd,98058,2
939,4691,,47.207367,-122.294997,101 Valley Ave NW,98371,2
940,4690,,48.102863,-123.342273,53 Jetta Way,98362,2
941,4689,,46.236607,-119.128998,928 N 28th Ave,99301,2
942,4688,,47.031067,-122.930247,2220 Carriage Dr SW,98502,2
943,4685,,47.9027298164056,-122.246988372491,10500 Highway 99 S,98204,2
944,4684,,47.77861,-122.346196,24325 Highway 99,98026,2
945,4682,,47.458466,-122.333257,16042 1st Ave S,98148,2
946,4681,,47.562162,-122.684286,5101 Auto Center Blvd,98312,2
947,4680,,48.755607,-122.454132,1516 Iowa St,98229,3
948,4678,,47.338754,-122.221114,713 35th St NE,98002,2
949,4567,True,47.5928923,-122.3261769,1045 6th Ave South,98134,1
950,4349,,47.61705102346179,-122.20302070898435,10201-10399 NE 8th St,98004,2
951,4323,,47.733788,-122.146893,14580 NE 145th St,98072,2
952,4313,,47.6723594,-122.0990339,18080 NE 76th St,98052,2
953,4308,,47.615626,-122.205745,600 100th Pl NE,98004,2
954,4306,True,47.6792243,-122.1299498,15670 NE 85th St,98052,2
955,4302,,47.7413216,-121.9840469,15600 1st Ave NE,98019,2
956,4301,True,48.455263887178745,-122.34090685844421,George Hopper Rd & Interstate 5,98233,2
957,4043,,47.675897,-122.091237,18655 NE Union Hill Rd,98052,2
958,3631,NA,47.977222,-122.204722,OAKES AVE,98201,1
959,3630,NA,47.757778,-122.190556,NE 180TH ST ,98011,1
960,3629,NA,47.238056,-122.426111,E 27th Street,98421,1
961,3627,NA,47.2197,-122.4857,4030 South Tacoma Way,98409,1
962,3626,NA,47.031,-122.9298,2220 Carriage Drive Southwest,98502,1
963,3616,NA,47.75436401,-122.074501,17401 198th Ave NE,98077,1
964,3615,NA,47.61480331,-122.193222,450 110th Ave NE,98004,1
965,3557,NA,47.4482,-122.219,3401 East Valley Road,98057,1
966,3550,NA,47.672273,-122.098,18080 NE 76th St.,98052,1
967,3549,NA,47.679,-122.13,15670 NE 85th St.,98052,1
968,3540,NA,46.2359,-119.127982,928 North 28th Avenue,99301,1
969,3502,NA,47.778,-122.346,24325 Highway 99,98026,1
970,3491,NA,47.3384,-122.22,713 35th Street,98002,1
971,3485,NA,47.2197,-122.4857,4030 South Tacoma Way,98409,0
972,3484,NA,47.031,-122.9298,2220 Carriage Drive Southwest,98502,0
973,3474,NA,47.75436401,-122.074501,17401 198th Ave NE,98077,0
974,3473,NA,47.61480331,-122.193222,450 110th Ave NE,98004,0
975,3416,NA,47.4482,-122.219,3401 East Valley Road,98057,0
976,3409,NA,47.672273,-122.098,18080 NE 76th St.,98052,0
977,3408,NA,47.679,-122.13,15670 NE 85th St.,98052,0
978,3399,NA,46.2359,-119.127982,928 North 28th Avenue,99301,0
979,3361,NA,47.778,-122.346,24325 Highway 99,98026,0
980,3350,NA,47.3384,-122.22,713 35th Street,98002,0
981,3094,,46.984193,-122.904856,243 Israel Rd SE,98501,1
982,3087,,47.045792,-122.933675,2611 Harrison Ave NW,98502,1
983,3085,,47.045903,-122.903434,210 State Ave NW,98501,1
984,3082,,47.056888,-122.841752,700 Lilly Rd,98506,1
985,3081,,47.04578,-122.871901,2023 4th Ave E,98501,1
986,2968,,47.707951,-122.583252,16285 Washington 305,98370,3
987,2967,,48.5250015,-122.9152985,162 Weeks Rd,98261,3
988,2965,,48.6950989,-122.9040985,469 Market St,98245,3
989,2909,,47.654998,-117.425025,159 S Lincoln St,99201,2
990,2908,,47.673347,-117.388933,1411 E Mission Ave,99252,2
991,2878,,47.035421,-122.938962,1313 Cooper Point Rd SW,98502,1
992,2799,,47.443377,-122.296229,17801 Pacific Hwy S,98188,1
993,2734,,47.04389,-122.823,500 College St SE,98503,1
